IRIDIUM 921             
1 24873U 97034E   24300.86264023  .00139443  00000+0  19639-2 0  9990
2 24873  86.3772 222.2320 0009472  88.8131 271.4216 15.56118172495809
IRIDIUM 26              
1 24903U 97043A   24300.83988655  .00001423  00000+0  47660-3 0  9997
2 24903  86.4018 208.5169 0002347  86.2363 273.9102 14.36725139423703
IRIDIUM 22              
1 24907U 97043E   24300.85889127  .00001279  00000+0  43744-3 0  9995
2 24907  86.4020 211.8461 0002258  81.5313 278.6140 14.35584726423287
DUMMY MASS 1            
1 24925U 97048A   24300.87603042  .00001516  00000+0  16825-3 0  9996
2 24925  86.3348 243.1002 0004334 245.9419 114.1353 14.86544015470700
DUMMY MASS 2            
1 24926U 97048B   24300.86683979  .00001538  00000+0  17169-3 0  9999
2 24926  86.3344 244.6701 0005004 263.9437  96.1217 14.86299401470483
IRIDIUM 29              
1 24944U 97051A   24300.33284478  .00001276  00000+0  43248-3 0  9992
2 24944  86.3959 241.8849 0002199  80.7906 279.3539 14.36032027419709
IRIDIUM 33              
1 24946U 97051C   24300.34650907  .00000954  00000+0  33081-3 0  9995
2 24946  86.3877 241.1259 0009853 113.6785 246.5446 14.34592790419218
IRIDIUM 28              
1 24948U 97051E   24300.38905093  .00001273  00000+0  42334-3 0  9996
2 24948  86.3970 239.5094 0002685  90.9428 269.2077 14.36979970420269
